start=new Date('2022-12-11T00:00:00.000Z').valueOf();
sats=[{"TLE_LINE1":"1 53428U 22097AS  22344.92597999 -.00003028  00000-0 -17289-3 0  9991","PERIOD":"95.447","ARG_OF_PERICENTER":"270.5746","ECCENTRICITY":"0.00021910","MEAN_ELEMENT_THEORY":"SGP4","MEAN_MOTION_DOT":"-0.00003028","FILE":"3688833","NORAD_CAT_ID":"53428","REV_AT_EPOCH":"1944","MEAN_ANOMALY":"89.4995","PERIAPSIS":"538.663","REF_FRAME":"TEME","MEAN_MOTION":"15.08698281","RA_OF_ASC_NODE":"22.8032","SEMIMAJOR_AXIS":"6918.314","LAUNCH_DATE":"2022-08-10","TIME_SYSTEM":"UTC","DECAY_DATE":null,"INCLINATION":"53.2196","CLASSIFICATION_TYPE":"U","BSTAR":"-0.00017289000000","GP_ID":"219951277","CENTER_NAME":"EARTH","EPHEMERIS_TYPE":"0","OBJECT_TYPE":"PAYLOAD","RCS_SIZE":"LARGE","APOAPSIS":"541.694","MEAN_MOTION_DDOT":"0.0000000000000","ELEMENT_SET_NO":"999","EPOCH":"2022-12-10T22:13:24.671136","COUNTRY_CODE":"US","OBJECT_NAME":"STARLINK-4540","SITE":"AFETR","OBJECT_ID":"2022-097AS","TLE_LINE2":"2 53428  53.2196  22.8032 0002191 270.5746  89.4995 15.08698281 19441"},{"TLE_LINE2":"2 53429  53.2197  25.2043 0001602  69.2183 290.8980 15.08841114 19364","OBJECT_ID":"2022-097AT","OBJECT_NAME":"STARLINK-4543","SITE":"AFETR","EPOCH":"2022-12-10T09:35:31.592544","COUNTRY_CODE":"US","MEAN_MOTION_DDOT":"0.0000000000000","APOAPSIS":"540.850","ELEMENT_SET_NO":"999","RCS_SIZE":"LARGE","OBJECT_TYPE":"PAYLOAD","EPHEMERIS_TYPE":"0","CENTER_NAME":"EARTH","INCLINATION":"53.2197","DECAY_DATE":null,"GP_ID":"219951278","BSTAR":"0.00009833200000","CLASSIFICATION_TYPE":"U","LAUNCH_DATE":"2022-08-10","SEMIMAJOR_AXIS":"6917.877","TIME_SYSTEM":"UTC","MEAN_MOTION":"15.08841114","RA_OF_ASC_NODE":"25.2043","REF_FRAME":"TEME","REV_AT_EPOCH":"1936","PERIAPSIS":"538.634","MEAN_ANOMALY":"290.8980","FILE":"3688833","NORAD_CAT_ID":"53429","MEAN_MOTION_DOT":"0.00001277","MEAN_ELEMENT_THEORY":"SGP4","ECCENTRICITY":"0.00016020","PERIOD":"95.437","TLE_LINE1":"1 53429U 22097AT  22344.39967121  .00001277  00000-0  98332-4 0  9992","ARG_OF_PERICENTER":"69.2183"},{"RCS_SIZE":"LARGE","OBJECT_TYPE":"PAYLOAD","EPHEMERIS_TYPE":"0","CENTER_NAME":"EARTH","TLE_LINE2":"2 53430  53.2177  24.2653 0001650  53.9761 306.1384 15.08842508 19856","OBJECT_NAME":"STARLINK-4538","SITE":"AFETR","OBJECT_ID":"2022-097AU","EPOCH":"2022-12-10T14:11:03.222528","COUNTRY_CODE":"US","APOAPSIS":"540.879","MEAN_MOTION_DDOT":"0.0000000000000","ELEMENT_SET_NO":"999","REV_AT_EPOCH":"1985","PERIAPSIS":"538.596","MEAN_ANOMALY":"306.1384","MEAN_ELEMENT_THEORY":"SGP4","MEAN_MOTION_DOT":"-0.00000906","FILE":"3688965","NORAD_CAT_ID":"53430","ECCENTRICITY":"0.00016500","PERIOD":"95.437","TLE_LINE1":"1 53430U 22097AU  22344.59100952 -.00000906  00000-0 -38849-4 0  9994","ARG_OF_PERICENTER":"53.9761","DECAY_DATE":null,"INCLINATION":"53.2177","CLASSIFICATION_TYPE":"U","BSTAR":"-0.00003884900000","GP_ID":"219979383","SEMIMAJOR_AXIS":"6917.873","LAUNCH_DATE":"2022-08-10","TIME_SYSTEM":"UTC","REF_FRAME":"TEME","RA_OF_ASC_NODE":"24.2653","MEAN_MOTION":"15.08842508"},{"ECCENTRICITY":"0.00014320","TLE_LINE1":"1 53431U 22097AV  22344.73178941  .00001584  00000-0  11745-3 0  9990","PERIOD":"95.435","ARG_OF_PERICENTER":"45.0417","REV_AT_EPOCH":"1989","MEAN_ANOMALY":"315.0691","PERIAPSIS":"538.624","NORAD_CAT_ID":"53431","FILE":"3688965","MEAN_MOTION_DOT":"0.00001584","MEAN_ELEMENT_THEORY":"SGP4","LAUNCH_DATE":"2022-08-10","SEMIMAJOR_AXIS":"6917.750","TIME_SYSTEM":"UTC","RA_OF_ASC_NODE":"23.7269","MEAN_MOTION":"15.08882786","REF_FRAME":"TEME","INCLINATION":"53.2186","DECAY_DATE":null,"GP_ID":"219979996","CLASSIFICATION_TYPE":"U","BSTAR":"0.00011745000000","EPHEMERIS_TYPE":"0","CENTER_NAME":"EARTH","RCS_SIZE":"LARGE","OBJECT_TYPE":"PAYLOAD","EPOCH":"2022-12-10T17:33:46.605024","COUNTRY_CODE":"US","MEAN_MOTION_DDOT":"0.0000000000000","APOAPSIS":"540.605","ELEMENT_SET_NO":"999","TLE_LINE2":"2 53431  53.2186  23.7269 0001432  45.0417 315.0691 15.08882786 19898","OBJECT_ID":"2022-097AV","OBJECT_NAME":"STARLINK-4548","SITE":"AFETR"},{"TIME_SYSTEM":"UTC","SEMIMAJOR_AXIS":"6917.924","LAUNCH_DATE":"2022-08-10","REF_FRAME":"TEME","RA_OF_ASC_NODE":"25.0105","MEAN_MOTION":"15.08825594","CLASSIFICATION_TYPE":"U","BSTAR":"0.00000901170000","GP_ID":"219951627","DECAY_DATE":null,"INCLINATION":"53.2187","ECCENTRICITY":"0.00015190","ARG_OF_PERICENTER":"52.7447","TLE_LINE1":"1 53432U 22097AW  22344.36652342 -.00000145  00000-0  90117-5 0  9997","PERIOD":"95.438","MEAN_ANOMALY":"307.3683","PERIAPSIS":"538.739","REV_AT_EPOCH":"1936","MEAN_ELEMENT_THEORY":"SGP4","FILE":"3688833","NORAD_CAT_ID":"53432","MEAN_MOTION_DOT":"-0.00000145","COUNTRY_CODE":"US","EPOCH":"2022-12-10T08:47:47.623488","ELEMENT_SET_NO":"999","APOAPSIS":"540.840","MEAN_MOTION_DDOT":"0.0000000000000","TLE_LINE2":"2 53432  53.2187  25.0105 0001519  52.7447 307.3683 15.08825594 19369","SITE":"AFETR","OBJECT_NAME":"STARLINK-4557","OBJECT_ID":"2022-097AW","EPHEMERIS_TYPE":"0","CENTER_NAME":"EARTH","RCS_SIZE":"LARGE","OBJECT_TYPE":"PAYLOAD"},{"TIME_SYSTEM":"UTC","LAUNCH_DATE":"2022-08-10","SEMIMAJOR_AXIS":"6917.900","RA_OF_ASC_NODE":"24.5433","MEAN_MOTION":"15.08833551","REF_FRAME":"TEME","GP_ID":"219935549","BSTAR":"0.00013442000000","CLASSIFICATION_TYPE":"U","INCLINATION":"53.2179","DECAY_DATE":null,"ECCENTRICITY":"0.00014890","ARG_OF_PERICENTER":"79.8542","TLE_LINE1":"1 53433U 22097AX  22344.52109684  .00001852  00000-0  13442-3 0  9991","PERIOD":"95.438","PERIAPSIS":"538.735","MEAN_ANOMALY":"280.2618","REV_AT_EPOCH":"1984","FILE":"3688140","NORAD_CAT_ID":"53433","MEAN_MOTION_DOT":"0.00001852","MEAN_ELEMENT_THEORY":"SGP4","COUNTRY_CODE":"US","EPOCH":"2022-12-10T12:30:22.766976","ELEMENT_SET_NO":"999","MEAN_MOTION_DDOT":"0.0000000000000","APOAPSIS":"540.795","TLE_LINE2":"2 53433  53.2179  24.5433 0001489  79.8542 280.2618 15.08833551 19843","OBJECT_ID":"2022-097AX","SITE":"AFETR","OBJECT_NAME":"STARLINK-4549","EPHEMERIS_TYPE":"0","CENTER_NAME":"EARTH","RCS_SIZE":"LARGE","OBJECT_TYPE":"PAYLOAD"},{"MEAN_ELEMENT_THEORY":"SGP4","FILE":"3688965","MEAN_MOTION_DOT":"-0.00000275","NORAD_CAT_ID":"53434","PERIAPSIS":"538.945","MEAN_ANOMALY":"295.9505","REV_AT_EPOCH":"1990","ARG_OF_PERICENTER":"64.1611","TLE_LINE1":"1 53434U 22097AY  22344.69401341 -.00000275  00000-0  81348-6 0  9997","PERIOD":"95.438","ECCENTRICITY":"0.00011980","BSTAR":"0.00000081348000","CLASSIFICATION_TYPE":"U","GP_ID":"219978962","DECAY_DATE":null,"INCLINATION":"53.2206","REF_FRAME":"TEME","MEAN_MOTION":"15.08830707","RA_OF_ASC_NODE":"23.5008","TIME_SYSTEM":"UTC","SEMIMAJOR_AXIS":"6917.909","LAUNCH_DATE":"2022-08-10","OBJECT_TYPE":"PAYLOAD","RCS_SIZE":"LARGE","CENTER_NAME":"EARTH","EPHEMERIS_TYPE":"0","SITE":"AFETR","OBJECT_NAME":"STARLINK-4498","OBJECT_ID":"2022-097AY","TLE_LINE2":"2 53434  53.2206  23.5008 0001198  64.1611 295.9505 15.08830707 19908","ELEMENT_SET_NO":"999","APOAPSIS":"540.603","MEAN_MOTION_DDOT":"0.0000000000000","COUNTRY_CODE":"US","EPOCH":"2022-12-10T16:39:22.758624"},{"GP_ID":"219935332","CLASSIFICATION_TYPE":"U","BSTAR":"-0.00013003000000","INCLINATION":"53.2199","DECAY_DATE":null,"RA_OF_ASC_NODE":"24.4213","MEAN_MOTION":"15.08829769","REF_FRAME":"TEME","TIME_SYSTEM":"UTC","LAUNCH_DATE":"2022-08-10","SEMIMAJOR_AXIS":"6917.912","FILE":"3688140","NORAD_CAT_ID":"53435","MEAN_MOTION_DOT":"-0.00002356","MEAN_ELEMENT_THEORY":"SGP4","MEAN_ANOMALY":"300.1677","PERIAPSIS":"538.799","REV_AT_EPOCH":"1984","ARG_OF_PERICENTER":"59.9455","PERIOD":"95.438","TLE_LINE1":"1 53435U 22097AZ  22344.49995638 -.00002356  00000-0 -13003-3 0  9996","ECCENTRICITY":"0.00014130","OBJECT_ID":"2022-097AZ","OBJECT_NAME":"STARLINK-4542","SITE":"AFETR","TLE_LINE2":"2 53435  53.2199  24.4213 0001413  59.9455 300.1677 15.08829769 19844","ELEMENT_SET_NO":"999","MEAN_MOTION_DDOT":"0.0000000000000","APOAPSIS":"540.754","COUNTRY_CODE":"US","EPOCH":"2022-12-10T11:59:56.231232","OBJECT_TYPE":"PAYLOAD","RCS_SIZE":"LARGE","CENTER_NAME":"EARTH","EPHEMERIS_TYPE":"0"},{"CENTER_NAME":"EARTH","EPHEMERIS_TYPE":"0","OBJECT_TYPE":"PAYLOAD","RCS_SIZE":"LARGE","ELEMENT_SET_NO":"999","APOAPSIS":"540.704","MEAN_MOTION_DDOT":"0.0000000000000","COUNTRY_CODE":"US","EPOCH":"2022-12-10T10:12:32.520960","SITE":"AFETR","OBJECT_NAME":"STARLINK-4527","OBJECT_ID":"2022-097BA","TLE_LINE2":"2 53436  53.2203  24.6669 0001363  45.8879 314.2225 15.08834827 19853","ARG_OF_PERICENTER":"45.8879","PERIOD":"95.438","TLE_LINE1":"1 53436U 22097BA  22344.42537640 -.00002002  00000-0 -10777-3 0  9998","ECCENTRICITY":"0.00013630","MEAN_ELEMENT_THEORY":"SGP4","NORAD_CAT_ID":"53436","FILE":"3688140","MEAN_MOTION_DOT":"-0.00002002","MEAN_ANOMALY":"314.2225","PERIAPSIS":"538.818","REV_AT_EPOCH":"1985","REF_FRAME":"TEME","MEAN_MOTION":"15.08834827","RA_OF_ASC_NODE":"24.6669","TIME_SYSTEM":"UTC","SEMIMAJOR_AXIS":"6917.896","LAUNCH_DATE":"2022-08-10","CLASSIFICATION_TYPE":"U","BSTAR":"-0.00010777000000","GP_ID":"219936159","DECAY_DATE":null,"INCLINATION":"53.2203"},{"COUNTRY_CODE":"US","EPOCH":"2022-12-10T16:28:46.807104","ELEMENT_SET_NO":"999","APOAPSIS":"540.615","MEAN_MOTION_DDOT":"0.0000000000000","TLE_LINE2":"2 53438  53.2204  23.4550 0001283  50.8293 309.2813 15.08845876 19908","SITE":"AFETR","OBJECT_NAME":"STARLINK-4526","OBJECT_ID":"2022-097BC","EPHEMERIS_TYPE":"0","CENTER_NAME":"EARTH","RCS_SIZE":"LARGE","OBJECT_TYPE":"PAYLOAD","TIME_SYSTEM":"UTC","SEMIMAJOR_AXIS":"6917.862","LAUNCH_DATE":"2022-08-10","REF_FRAME":"TEME","MEAN_MOTION":"15.08845876","RA_OF_ASC_NODE":"23.4550","CLASSIFICATION_TYPE":"U","BSTAR":"-0.00000746700000","GP_ID":"219980187","DECAY_DATE":null,"INCLINATION":"53.2204","ECCENTRICITY":"0.00012830","ARG_OF_PERICENTER":"50.8293","TLE_LINE1":"1 53438U 22097BC  22344.68665286 -.00000407  00000-0 -74670-5 0  9997","PERIOD":"95.437","PERIAPSIS":"538.840","MEAN_ANOMALY":"309.2813","REV_AT_EPOCH":"1990","MEAN_ELEMENT_THEORY":"SGP4","FILE":"3688965","NORAD_CAT_ID":"53438","MEAN_MOTION_DOT":"-0.00000407"}];
